      2.10          N: GNSS NAV DATA                        RINEX VERSION / TYPE
fic2rin                                 07/09/2018 00:14:58 PGM / RUN BY / DATE
                                                            END OF HEADER
16 18  7  8 20  0  0.0 1.852540299296e-05-1.477928890381e-12 0.000000000000e+00
    3.400000000000e+01 1.250000000000e+01 4.163387707524e-09-9.212032727511e-01
    8.177012205124e-07 9.976495290175e-03 2.479180693626e-06 5.153658582687e+03
    7.200000000000e+04 2.533197402954e-07 7.673628280162e-01 5.215406417847e-08
    9.866804079994e-01 3.393750000000e+02 5.234867185116e-01-8.217127990649e-09
    7.536028191537e-11 1.000000000000e+00 2.009000000000e+03 0.000000000000e+00
    2.400000000000e+00 0.000000000000e+00-1.071020960808e-08 3.400000000000e+01
    6.480600000000e+04 4.000000000000e+00
12 18  7  8 20  0  0.0 3.222818486392e-04-2.501110429876e-12 0.000000000000e+00
    4.200000000000e+01 5.687500000000e+00 4.238033673971e-09 9.817801312890e-01
    9.313225746155e-08 7.141602225602e-03 2.995133399963e-06 5.153559072495e+03
    7.200000000000e+04-9.872019290924e-08 7.484543982556e-01 5.774199962616e-08
    9.862731579387e-01 3.334687500000e+02 1.004364713262e+00-8.309989001540e-09
   -3.821587755898e-11 1.000000000000e+00 2.009000000000e+03 0.000000000000e+00
    2.400000000000e+00 0.000000000000e+00-1.257285475731e-08 4.200000000000e+01
    6.480600000000e+04 4.000000000000e+00
10 18  7  8 20  0  0.0 1.888689585030e-04-1.136868377216e-13 0.000000000000e+00
    3.700000000000e+01-1.159375000000e+01 4.972707133212e-09 1.580975451231e-01
   -7.320195436478e-07 3.620938747190e-03 5.640089511871e-06 5.153657529831e+03
    7.200000000000e+04 1.303851604462e-08-2.459409804839e+00 2.235174179077e-08
    9.612742754463e-01 2.677187500000e+02-2.753084350888e+00-8.313203421148e-09
   -8.607501394126e-11 1.000000000000e+00 2.009000000000e+03 0.000000000000e+00
    2.400000000000e+00 0.000000000000e+00 1.862645149231e-09 3.700000000000e+01
    6.480600000000e+04 4.000000000000e+00
 6 18  7  8 20  0  0.0 3.890530206263e-04-3.637978807092e-12 0.000000000000e+00
    3.800000000000e+01-4.375000000000e+00 4.371967824294e-09 2.380199650469e+00
   -4.097819328308e-08 1.069684047252e-03 9.471550583839e-06 5.153657760620e+03
    7.200000000000e+04 5.401670932770e-08 2.776476048172e+00 3.539025783539e-08
    9.718013666505e-01 2.004375000000e+02-1.034904384813e+00-7.907115077367e-09
    3.803729869188e-10 1.000000000000e+00 2.009000000000e+03 0.000000000000e+00
    2.400000000000e+00 0.000000000000e+00 4.656612873077e-09 3.800000000000e+01
    6.480600000000e+04 4.000000000000e+00
14 18  7  8 20  0  0.0-9.759655222297e-05-1.136868377216e-13 0.000000000000e+00
    9.600000000000e+01-1.053125000000e+01 4.275892393796e-09-2.199715902380e+00
   -5.103647708893e-07 1.003356184810e-02 1.082755625248e-05 5.153604087830e+03
    7.200000000000e+04 1.080334186554e-07-1.331938689004e+00-1.620501279831e-07
    9.605814930349e-01 1.717187500000e+02-1.948241134509e+00-7.672819603734e-09
   -4.543046378974e-10 1.000000000000e+00 2.009000000000e+03 0.000000000000e+00
    2.400000000000e+00 0.000000000000e+00-9.778887033463e-09 9.600000000000e+01
    6.480600000000e+04 4.000000000000e+00
11 18  7  8 20  0  0.0-7.309233769774e-04 1.591615728103e-12 0.000000000000e+00
    9.800000000000e+01-5.453125000000e+01 5.645592304437e-09 1.562513103228e+00
   -3.043562173843e-06 1.697140082251e-02 9.169802069664e-06 5.153648620605e+03
    7.200000000000e+04 2.291053533554e-07 2.355155710100e+00-4.135072231293e-07
    9.059956907228e-01 1.733125000000e+02 1.778901979734e+00-8.464995458181e-09
    2.250093725435e-10 1.000000000000e+00 2.009000000000e+03 0.000000000000e+00
    3.400000000000e+00 0.000000000000e+00-1.210719347000e-08 9.800000000000e+01
    6.480600000000e+04 4.000000000000e+00
 7 18  7  8 20  0  0.0 1.622238196433e-04-6.366462912410e-12 0.000000000000e+00
    8.400000000000e+01 9.284375000000e+01 4.352681306648e-09 1.559653089606e+00
    4.928559064865e-06 1.188540703151e-02 9.037554264069e-06 5.153662282944e+03
    7.200000000000e+04-2.160668373108e-07-3.446248052921e-01 1.005828380585e-07
    9.584671931258e-01 2.058125000000e+02-2.516966758660e+00-8.109623512656e-09
   -5.714523747137e-12 1.000000000000e+00 2.009000000000e+03 0.000000000000e+00
    3.400000000000e+00 0.000000000000e+00-1.117587089539e-08 8.400000000000e+01
    6.480600000000e+04 4.000000000000e+00
17 18  7  8 20  0  0.0-8.028792217374e-05 3.865352482535e-12 0.000000000000e+00
    6.800000000000e+01-7.406250000000e+01 4.039453973758e-09-1.936650662782e+00
   -3.708526492119e-06 1.238990458660e-02 8.227303624153e-06 5.153583129883e+03
    7.200000000000e+04 2.011656761169e-07 1.782813619332e+00 1.266598701477e-07
    9.827621501597e-01 2.281875000000e+02-1.777508384953e+00-7.684248651229e-09
   -3.250135381184e-11 1.000000000000e+00 2.009000000000e+03 0.000000000000e+00
    2.400000000000e+00 0.000000000000e+00-1.117587089539e-08 6.800000000000e+01
    6.480600000000e+04 4.000000000000e+00
29 18  7  8 20  0  0.0 4.183743149042e-04-6.934897101019e-12 0.000000000000e+00
    3.600000000000e+01-9.434375000000e+01 4.048382917113e-09-1.069013450667e+00
   -4.731118679047e-06 8.386725094169e-04 9.110197424889e-06 5.153671483994e+03
    7.200000000000e+04 2.048909664154e-08 1.793477891290e+00 1.862645149231e-09
    9.840653995081e-01 2.196562500000e+02 1.350572711906e+00-7.858184467782e-09
   -7.428880871279e-11 1.000000000000e+00 2.009000000000e+03 0.000000000000e+00
    2.400000000000e+00 0.000000000000e+00-1.024454832077e-08 3.600000000000e+01
    6.480600000000e+04 4.000000000000e+00
22 18  7  8 20  0  0.0-4.514581523836e-04-1.216449163621e-11 0.000000000000e+00
    7.500000000000e+01-4.875000000000e+00 5.691308494415e-09-2.586683086716e+00
   -2.495944499969e-07 7.306862622499e-03 5.139037966728e-06 5.153767011642e+03
    7.200000000000e+04 7.636845111847e-08-2.517127798145e+00 1.229345798492e-07
    9.253549523366e-01 2.585937500000e+02-1.512966708451e+00-8.543927317439e-09
    1.014327965117e-10 1.000000000000e+00 2.009000000000e+03 0.000000000000e+00
    2.400000000000e+00 0.000000000000e+00-1.769512891769e-08 7.500000000000e+01
    6.480600000000e+04 4.000000000000e+00
25 18  7  8 20  0  0.0-6.130710244179e-04-5.798028723802e-12 0.000000000000e+00
    4.300000000000e+01 1.806250000000e+01 4.530545858277e-09 5.060234470048e-01
    7.171183824539e-07 7.458405336365e-03 2.831220626831e-06 5.153621112823e+03
    7.200000000000e+04-1.061707735062e-07 6.881719315003e-01 1.098960638046e-07
    9.739215986924e-01 3.341875000000e+02 8.715367577699e-01-8.450351991079e-09
    1.500062483624e-11 1.000000000000e+00 2.009000000000e+03 0.000000000000e+00
    2.400000000000e+00 0.000000000000e+00 6.053596735001e-09 4.300000000000e+01
    6.480600000000e+04 4.000000000000e+00
27 18  7  8 20  0  0.0 3.621038049459e-04-2.160049916711e-12 0.000000000000e+00
    4.100000000000e+01-9.153125000000e+01 4.173388124081e-09-1.878647135662e+00
   -4.943460226059e-06 6.005472387187e-03 7.225200533867e-06 5.153689357758e+03
    7.200000000000e+04 3.725290298462e-08 1.728490691695e+00-9.499490261078e-08
    9.774442410589e-01 2.481875000000e+02 4.491091647994e-01-7.923901490874e-09
   -2.178662178596e-11 1.000000000000e+00 2.009000000000e+03 0.000000000000e+00
    2.400000000000e+00 0.000000000000e+00 1.396983861923e-09 4.100000000000e+01
    6.480600000000e+04 4.000000000000e+00
24 18  7  8 20  0  0.0-5.227513611317e-05-4.547473508865e-13 0.000000000000e+00
    9.000000000000e+01 1.121250000000e+02 4.704124517097e-09 2.532470711799e+00
    5.779787898064e-06 6.984233041294e-03 9.085983037949e-06 5.153645603180e+03
    7.200000000000e+04-2.980232238770e-08-4.050491999707e-01-9.872019290924e-08
    9.415099054838e-01 1.925000000000e+02 5.391016998183e-01-8.176769166685e-09
    1.864363372504e-10 1.000000000000e+00 2.009000000000e+03 0.000000000000e+00
    2.400000000000e+00 0.000000000000e+00 2.793967723846e-09 9.000000000000e+01
    6.480600000000e+04 4.000000000000e+00
23 18  7  8 20  0  0.0-2.147816121578e-04 5.684341886081e-13 0.000000000000e+00
    4.600000000000e+01-1.937500000000e+01 4.795556897051e-09 3.061428451343e+00
   -1.117587089539e-06 1.264203689061e-02 9.801238775253e-06 5.153771850586e+03
    7.200000000000e+04-2.048909664154e-08-1.424149729050e+00-1.322478055954e-07
    9.431120611801e-01 1.784687500000e+02-2.345421837948e+00-7.928544541419e-09
   -4.400183285296e-10 1.000000000000e+00 2.009000000000e+03 0.000000000000e+00
    2.400000000000e+00 0.000000000000e+00-2.002343535423e-08 4.600000000000e+01
    6.480600000000e+04 4.000000000000e+00
21 18  7  8 20  0  0.0-3.703595139086e-04 5.456968210638e-12 0.000000000000e+00
    4.800000000000e+01-2.018750000000e+01 5.139499795082e-09 4.350327285850e-01
   -9.760260581970e-07 2.432654297445e-02 1.016631722450e-05 5.153675661087e+03
    7.200000000000e+04-2.551823854446e-07 2.729407125642e+00-7.823109626770e-08
    9.447208541356e-01 1.845000000000e+02-1.545233997016e+00-8.730006496955e-09
    3.543004723225e-10 1.000000000000e+00 2.009000000000e+03 0.000000000000e+00
    2.400000000000e+00 0.000000000000e+00-1.024454832077e-08 4.800000000000e+01
    6.480600000000e+04 4.000000000000e+00
19 18  7  8 20  0  0.0-4.220400005579e-04 3.183231456205e-12 0.000000000000e+00
    9.700000000000e+01-7.481250000000e+01 4.149815713624e-09 9.408425500515e-01
   -3.896653652191e-06 9.887655614875e-03 8.927658200264e-06 5.153719730377e+03
    7.200000000000e+04-1.415610313416e-07 1.829733613875e+00 4.656612873077e-08
    9.803322183604e-01 2.215625000000e+02 1.226365062639e+00-8.025334287386e-09
   -1.357199389945e-10 1.000000000000e+00 2.009000000000e+03 0.000000000000e+00
    2.400000000000e+00 0.000000000000e+00-1.536682248116e-08 9.700000000000e+01
    6.480600000000e+04 4.000000000000e+00
